STARLINK-36629          
1 67596U 26018H   26037.91671296 -.01787525  88671-3 -53739-2 0  9998
2 67596  97.2787 102.0949 0001631  66.1359  28.1700 15.92364990  2391
STARLINK-36384          
1 67597U 26018J   26037.91671296 -.01773629  87569-3 -52769-2 0  9996
2 67597  97.2783 102.0963 0001613  64.6472  33.3707 15.92565269  2457
STARLINK-36358          
1 67598U 26018K   26037.91671296 -.01768722  87239-3 -52253-2 0  9997
2 67598  97.2781 102.0972 0001474  73.1346  27.4963 15.92701557  2445
STARLINK-36582          
1 67599U 26018L   26037.91671296 -.01775014  88023-3 -51829-2 0  9990
2 67599  97.2781 102.1000 0001554  68.7931  35.7998 15.92927908  2505
STARLINK-36640          
1 67600U 26018M   26037.91671296 -.01753889  86402-3 -50246-2 0  9990
2 67600  97.2778 102.1020 0001588  66.0068  45.3082 15.93291573  2408
STARLINK-36635          
1 67601U 26018N   26037.91671296 -.01772490  87934-3 -51325-2 0  9990
2 67601  97.2778 102.1002 0001709  62.7743  44.7938 15.93087787  2400
STARLINK-36631          
1 67602U 26018P   26037.91671296 -.01747702  86033-3 -49486-2 0  9993
2 67602  97.2773 102.1041 0001601  69.5842  45.7275 15.93515034  2399
STARLINK-36626          
1 67603U 26018Q   26037.91671296 -.01711611  83226-3 -47076-2 0  9998
2 67603  97.2767 102.1083 0001590  74.3939  51.0856 15.94064950  2399
STARLINK-36605          
1 67604U 26018R   26037.91671296 -.01719443  83813-3 -47649-2 0  9998
2 67604  97.2766 102.1068 0001582  70.6791  52.0700 15.93922687  2396
STARLINK-36281          
1 67605U 26018S   26037.91671296 -.01722350  83909-3 -48215-2 0  9996
2 67605  97.2767 102.1051 0001627  69.3069  50.0040 15.93730067  2443
STARLINK-35843          
1 67606U 26018T   26037.91671296 -.01723313  84449-3 -46952-2 0  9993
2 67606  97.2763 102.1091 0001647  69.6116  59.0306 15.94246358  2453
STARLINK-36351          
1 67607U 26018U   26037.91671296 -.01706843  83077-3 -46146-2 0  9994
2 67607  97.2765 102.1111 0001567  75.6105  55.8336 15.94390612  2455
