CCSDS_OMM_VERS = 2.0
CREATION_DATE  = 
ORIGINATOR     = 

OBJECT_NAME    = STARLINK-36629
OBJECT_ID      = 2026-018H
CENTER_NAME    = EARTH
REF_FRAME      = TEME
TIME_SYSTEM    = UTC
MEAN_ELEMENT_THEORY = SGP/SGP4

EPOCH          = 2026-02-06T22:00:03.999744
MEAN_MOTION    = 15.92364990
ECCENTRICITY   = .00016314
INCLINATION    = 97.2787
RA_OF_ASC_NODE = 102.0949
ARG_OF_PERICENTER = 66.1359
MEAN_ANOMALY   = 28.1700

EPHEMERIS_TYPE = 0
CLASSIFICATION_TYPE = U
NORAD_CAT_ID   = 67596
ELEMENT_SET_NO = 999
REV_AT_EPOCH   = 239
BSTAR          = -.53739282E-2
MEAN_MOTION_DOT = -.1787525E-1
MEAN_MOTION_DDOT = .88670762E-3

CCSDS_OMM_VERS = 2.0
CREATION_DATE  = 
ORIGINATOR     = 

OBJECT_NAME    = STARLINK-36384
OBJECT_ID      = 2026-018J
CENTER_NAME    = EARTH
REF_FRAME      = TEME
TIME_SYSTEM    = UTC
MEAN_ELEMENT_THEORY = SGP/SGP4

EPOCH          = 2026-02-06T22:00:03.999744
MEAN_MOTION    = 15.92565269
ECCENTRICITY   = .00016139
INCLINATION    = 97.2783
RA_OF_ASC_NODE = 102.0963
ARG_OF_PERICENTER = 64.6472
MEAN_ANOMALY   = 33.3707

EPHEMERIS_TYPE = 0
CLASSIFICATION_TYPE = U
NORAD_CAT_ID   = 67597
ELEMENT_SET_NO = 999
REV_AT_EPOCH   = 245
BSTAR          = -.52768653E-2
MEAN_MOTION_DOT = -.1773629E-1
MEAN_MOTION_DDOT = .87568735E-3

CCSDS_OMM_VERS = 2.0
CREATION_DATE  = 
ORIGINATOR     = 

OBJECT_NAME    = STARLINK-36358
OBJECT_ID      = 2026-018K
CENTER_NAME    = EARTH
REF_FRAME      = TEME
TIME_SYSTEM    = UTC
MEAN_ELEMENT_THEORY = SGP/SGP4

EPOCH          = 2026-02-06T22:00:03.999744
MEAN_MOTION    = 15.92701557
ECCENTRICITY   = .00014746
INCLINATION    = 97.2781
RA_OF_ASC_NODE = 102.0972
ARG_OF_PERICENTER = 73.1346
MEAN_ANOMALY   = 27.4963

EPHEMERIS_TYPE = 0
CLASSIFICATION_TYPE = U
NORAD_CAT_ID   = 67598
ELEMENT_SET_NO = 999
REV_AT_EPOCH   = 244
BSTAR          = -.52252624E-2
MEAN_MOTION_DOT = -.1768722E-1
MEAN_MOTION_DDOT = .87238864E-3

CCSDS_OMM_VERS = 2.0
CREATION_DATE  = 
ORIGINATOR     = 

OBJECT_NAME    = STARLINK-36582
OBJECT_ID      = 2026-018L
CENTER_NAME    = EARTH
REF_FRAME      = TEME
TIME_SYSTEM    = UTC
MEAN_ELEMENT_THEORY = SGP/SGP4

EPOCH          = 2026-02-06T22:00:03.999744
MEAN_MOTION    = 15.92927908
ECCENTRICITY   = .00015541
INCLINATION    = 97.2781
RA_OF_ASC_NODE = 102.1000
ARG_OF_PERICENTER = 68.7931
MEAN_ANOMALY   = 35.7998

EPHEMERIS_TYPE = 0
CLASSIFICATION_TYPE = U
NORAD_CAT_ID   = 67599
ELEMENT_SET_NO = 999
REV_AT_EPOCH   = 250
BSTAR          = -.51828875E-2
MEAN_MOTION_DOT = -.1775014E-1
MEAN_MOTION_DDOT = .88022529E-3

CCSDS_OMM_VERS = 2.0
CREATION_DATE  = 
ORIGINATOR     = 

OBJECT_NAME    = STARLINK-36640
OBJECT_ID      = 2026-018M
CENTER_NAME    = EARTH
REF_FRAME      = TEME
TIME_SYSTEM    = UTC
MEAN_ELEMENT_THEORY = SGP/SGP4

EPOCH          = 2026-02-06T22:00:03.999744
MEAN_MOTION    = 15.93291573
ECCENTRICITY   = .00015883
INCLINATION    = 97.2778
RA_OF_ASC_NODE = 102.1020
ARG_OF_PERICENTER = 66.0068
MEAN_ANOMALY   = 45.3082

EPHEMERIS_TYPE = 0
CLASSIFICATION_TYPE = U
NORAD_CAT_ID   = 67600
ELEMENT_SET_NO = 999
REV_AT_EPOCH   = 240
BSTAR          = -.50245718E-2
MEAN_MOTION_DOT = -.1753889E-1
MEAN_MOTION_DDOT = .86402388E-3

CCSDS_OMM_VERS = 2.0
CREATION_DATE  = 
ORIGINATOR     = 

OBJECT_NAME    = STARLINK-36635
OBJECT_ID      = 2026-018N
CENTER_NAME    = EARTH
REF_FRAME      = TEME
TIME_SYSTEM    = UTC
MEAN_ELEMENT_THEORY = SGP/SGP4

EPOCH          = 2026-02-06T22:00:03.999744
MEAN_MOTION    = 15.93087787
ECCENTRICITY   = .00017095
INCLINATION    = 97.2778
RA_OF_ASC_NODE = 102.1002
ARG_OF_PERICENTER = 62.7743
MEAN_ANOMALY   = 44.7938

EPHEMERIS_TYPE = 0
CLASSIFICATION_TYPE = U
NORAD_CAT_ID   = 67601
ELEMENT_SET_NO = 999
REV_AT_EPOCH   = 240
BSTAR          = -.51325271E-2
MEAN_MOTION_DOT = -.177249E-1
MEAN_MOTION_DDOT = .87933932E-3

CCSDS_OMM_VERS = 2.0
CREATION_DATE  = 
ORIGINATOR     = 

OBJECT_NAME    = STARLINK-36631
OBJECT_ID      = 2026-018P
CENTER_NAME    = EARTH
REF_FRAME      = TEME
TIME_SYSTEM    = UTC
MEAN_ELEMENT_THEORY = SGP/SGP4

EPOCH          = 2026-02-06T22:00:03.999744
MEAN_MOTION    = 15.93515034
ECCENTRICITY   = .00016012
INCLINATION    = 97.2773
RA_OF_ASC_NODE = 102.1041
ARG_OF_PERICENTER = 69.5842
MEAN_ANOMALY   = 45.7275

EPHEMERIS_TYPE = 0
CLASSIFICATION_TYPE = U
NORAD_CAT_ID   = 67602
ELEMENT_SET_NO = 999
REV_AT_EPOCH   = 239
BSTAR          = -.49486243E-2
MEAN_MOTION_DOT = -.1747702E-1
MEAN_MOTION_DDOT = .86033478E-3

CCSDS_OMM_VERS = 2.0
CREATION_DATE  = 
ORIGINATOR     = 

OBJECT_NAME    = STARLINK-36626
OBJECT_ID      = 2026-018Q
CENTER_NAME    = EARTH
REF_FRAME      = TEME
TIME_SYSTEM    = UTC
MEAN_ELEMENT_THEORY = SGP/SGP4

EPOCH          = 2026-02-06T22:00:03.999744
MEAN_MOTION    = 15.94064950
ECCENTRICITY   = .000159
INCLINATION    = 97.2767
RA_OF_ASC_NODE = 102.1083
ARG_OF_PERICENTER = 74.3939
MEAN_ANOMALY   = 51.0856

EPHEMERIS_TYPE = 0
CLASSIFICATION_TYPE = U
NORAD_CAT_ID   = 67603
ELEMENT_SET_NO = 999
REV_AT_EPOCH   = 239
BSTAR          = -.47076496E-2
MEAN_MOTION_DOT = -.1711611E-1
MEAN_MOTION_DDOT = .83226397E-3

CCSDS_OMM_VERS = 2.0
CREATION_DATE  = 
ORIGINATOR     = 

OBJECT_NAME    = STARLINK-36605
OBJECT_ID      = 2026-018R
CENTER_NAME    = EARTH
REF_FRAME      = TEME
TIME_SYSTEM    = UTC
MEAN_ELEMENT_THEORY = SGP/SGP4

EPOCH          = 2026-02-06T22:00:03.999744
MEAN_MOTION    = 15.93922687
ECCENTRICITY   = .00015829
INCLINATION    = 97.2766
RA_OF_ASC_NODE = 102.1068
ARG_OF_PERICENTER = 70.6791
MEAN_ANOMALY   = 52.0700

EPHEMERIS_TYPE = 0
CLASSIFICATION_TYPE = U
NORAD_CAT_ID   = 67604
ELEMENT_SET_NO = 999
REV_AT_EPOCH   = 239
BSTAR          = -.47649141E-2
MEAN_MOTION_DOT = -.1719443E-1
MEAN_MOTION_DDOT = .83813066E-3

CCSDS_OMM_VERS = 2.0
CREATION_DATE  = 
ORIGINATOR     = 

OBJECT_NAME    = STARLINK-36281
OBJECT_ID      = 2026-018S
CENTER_NAME    = EARTH
REF_FRAME      = TEME
TIME_SYSTEM    = UTC
MEAN_ELEMENT_THEORY = SGP/SGP4

EPOCH          = 2026-02-06T22:00:03.999744
MEAN_MOTION    = 15.93730067
ECCENTRICITY   = .00016279
INCLINATION    = 97.2767
RA_OF_ASC_NODE = 102.1051
ARG_OF_PERICENTER = 69.3069
MEAN_ANOMALY   = 50.0040

EPHEMERIS_TYPE = 0
CLASSIFICATION_TYPE = U
NORAD_CAT_ID   = 67605
ELEMENT_SET_NO = 999
REV_AT_EPOCH   = 244
BSTAR          = -.48214585E-2
MEAN_MOTION_DOT = -.172235E-1
MEAN_MOTION_DDOT = .83909447E-3

CCSDS_OMM_VERS = 2.0
CREATION_DATE  = 
ORIGINATOR     = 

OBJECT_NAME    = STARLINK-35843
OBJECT_ID      = 2026-018T
CENTER_NAME    = EARTH
REF_FRAME      = TEME
TIME_SYSTEM    = UTC
MEAN_ELEMENT_THEORY = SGP/SGP4

EPOCH          = 2026-02-06T22:00:03.999744
MEAN_MOTION    = 15.94246358
ECCENTRICITY   = .00016475
INCLINATION    = 97.2763
RA_OF_ASC_NODE = 102.1091
ARG_OF_PERICENTER = 69.6116
MEAN_ANOMALY   = 59.0306

EPHEMERIS_TYPE = 0
CLASSIFICATION_TYPE = U
NORAD_CAT_ID   = 67606
ELEMENT_SET_NO = 999
REV_AT_EPOCH   = 245
BSTAR          = -.46951538E-2
MEAN_MOTION_DOT = -.1723313E-1
MEAN_MOTION_DDOT = .84449002E-3

CCSDS_OMM_VERS = 2.0
CREATION_DATE  = 
ORIGINATOR     = 

OBJECT_NAME    = STARLINK-36351
OBJECT_ID      = 2026-018U
CENTER_NAME    = EARTH
REF_FRAME      = TEME
TIME_SYSTEM    = UTC
MEAN_ELEMENT_THEORY = SGP/SGP4

EPOCH          = 2026-02-06T22:00:03.999744
MEAN_MOTION    = 15.94390612
ECCENTRICITY   = .00015678
INCLINATION    = 97.2765
RA_OF_ASC_NODE = 102.1111
ARG_OF_PERICENTER = 75.6105
MEAN_ANOMALY   = 55.8336

EPHEMERIS_TYPE = 0
CLASSIFICATION_TYPE = U
NORAD_CAT_ID   = 67607
ELEMENT_SET_NO = 999
REV_AT_EPOCH   = 245
BSTAR          = -.46145874E-2
MEAN_MOTION_DOT = -.1706843E-1
MEAN_MOTION_DDOT = .83076708E-3

